{
  "norad_id": 51969,
  "name": "STARLINK-3680",
  "history": [
    {
      "epoch": "2026-03-28T20:58:48.206784Z",
      "apogee_km": 475.86773076842746,
      "perigee_km": 474.61973013741135,
      "latitude_deg": -2.5313806608126635e-06,
      "longitude_deg": 154.22258025512517,
      "height_km": 476.1317514372616,
      "semi_major_axis_km": 6853.380730452919,
      "eccentricity": 9.105e-05,
      "inclination_deg": 53.1598,
      "raan_deg": 295.2118,
      "arg_perigee_deg": 89.0346,
      "mean_anomaly_deg": 271.0759,
      "mean_motion_rev_day": 15.30190401
    },
    {
      "epoch": "2026-03-30T05:53:55.164768Z",
      "apogee_km": 476.1006834506088,
      "perigee_km": 474.38706409692986,
      "latitude_deg": 6.194719908238645e-05,
      "longitude_deg": 12.721518599541753,
      "height_km": 476.05692910235854,
      "semi_major_axis_km": 6853.380873773769,
      "eccentricity": 0.00012502,
      "inclination_deg": 53.1584,
      "raan_deg": 288.8416,
      "arg_perigee_deg": 84.3152,
      "mean_anomaly_deg": 275.7992,
      "mean_motion_rev_day": 15.30190353
    },
    {
      "epoch": "2026-03-30T13:44:11.313024Z",
      "apogee_km": 476.14427098222495,
      "perigee_km": 474.35169960547137,
      "latitude_deg": -3.889615368267346e-05,
      "longitude_deg": -106.68392834629319,
      "height_km": 476.1767812333467,
      "semi_major_axis_km": 6853.384985293847,
      "eccentricity": 0.00013078,
      "inclination_deg": 53.1589,
      "raan_deg": 287.3254,
      "arg_perigee_deg": 91.975,
      "mean_anomaly_deg": 268.14,
      "mean_motion_rev_day": 15.30188976
    },
    {
      "epoch": "2026-03-30T20:00:23.999904Z",
      "apogee_km": 476.1510718770296,
      "perigee_km": 474.32409928000743,
      "latitude_deg": -2.9477003784254972e-05,
      "longitude_deg": 157.79260938758316,
      "height_km": 476.2451343360783,
      "semi_major_axis_km": 6853.374585578518,
      "eccentricity": 0.00013329,
      "inclination_deg": 53.1589,
      "raan_deg": 286.1123,
      "arg_perigee_deg": 96.8951,
      "mean_anomaly_deg": 263.2201,
      "mean_motion_rev_day": 15.30192459
    },
    {
      "epoch": "2026-03-31T13:14:59.137440Z",
      "apogee_km": 476.15744724674914,
      "perigee_km": 474.3029260860385,
      "latitude_deg": -4.226452389051008e-05,
      "longitude_deg": -104.8982542706909,
      "height_km": 476.31743763511366,
      "semi_major_axis_km": 6853.3671866663935,
      "eccentricity": 0.0001353,
      "inclination_deg": 53.1587,
      "raan_deg": 282.776,
      "arg_perigee_deg": 101.7854,
      "mean_anomaly_deg": 258.3298,
      "mean_motion_rev_day": 15.30194937
    },
    {
      "epoch": "2026-04-01T12:45:47.291040Z",
      "apogee_km": 476.18741850220886,
      "perigee_km": 474.2876630795017,
      "latitude_deg": -2.2049526966747435e-05,
      "longitude_deg": -103.11593796313117,
      "height_km": 476.3282953030322,
      "semi_major_axis_km": 6853.374540790855,
      "eccentricity": 0.0001386,
      "inclination_deg": 53.1593,
      "raan_deg": 278.2246,
      "arg_perigee_deg": 101.7157,
      "mean_anomaly_deg": 258.3999,
      "mean_motion_rev_day": 15.30192474
    },
    {
      "epoch": "2026-04-01T12:45:47.291904Z",
      "apogee_km": 476.1874870359543,
      "perigee_km": 474.2875945457554,
      "latitude_deg": -2.295330453320842e-05,
      "longitude_deg": -103.11594224635888,
      "height_km": 476.32830921901325,
      "semi_major_axis_km": 6853.374540790855,
      "eccentricity": 0.00013861,
      "inclination_deg": 53.1593,
      "raan_deg": 278.2246,
      "arg_perigee_deg": 101.7157,
      "mean_anomaly_deg": 258.3999,
      "mean_motion_rev_day": 15.30192474
    },
    {
      "epoch": "2026-04-02T21:40:53.611392Z",
      "apogee_km": 476.0596267885021,
      "perigee_km": 474.33834292254596,
      "latitude_deg": -4.871835626572163e-05,
      "longitude_deg": 115.38359700949674,
      "height_km": 476.11391590898603,
      "semi_major_axis_km": 6853.335984855524,
      "eccentricity": 0.00012558,
      "inclination_deg": 53.1601,
      "raan_deg": 271.8524,
      "arg_perigee_deg": 91.1196,
      "mean_anomaly_deg": 268.9948,
      "mean_motion_rev_day": 15.30205387
    },
    {
      "epoch": "2026-04-03T18:03:35.375328Z",
      "apogee_km": 476.05413323055654,
      "perigee_km": 474.37506208912964,
      "latitude_deg": -4.0680433918181365e-05,
      "longitude_deg": 164.92538088789374,
      "height_km": 476.1890082698,
      "semi_major_axis_km": 6853.351597659843,
      "eccentricity": 0.0001225,
      "inclination_deg": 53.158,
      "raan_deg": 267.9051,
      "arg_perigee_deg": 95.2266,
      "mean_anomaly_deg": 264.8874,
      "mean_motion_rev_day": 15.30200158
    },
    {
      "epoch": "2026-04-03T21:11:41.650944Z",
      "apogee_km": 476.068354329117,
      "perigee_km": 474.3543319085029,
      "latitude_deg": -6.751257252917385e-05,
      "longitude_deg": 117.16485946848587,
      "height_km": 476.15232906185736,
      "semi_major_axis_km": 6853.34834311881,
      "eccentricity": 0.00012505,
      "inclination_deg": 53.1592,
      "raan_deg": 267.2995,
      "arg_perigee_deg": 92.8732,
      "mean_anomaly_deg": 267.2411,
      "mean_motion_rev_day": 15.30201248
    },
    {
      "epoch": "2026-04-05T10:48:59.461344Z",
      "apogee_km": 476.1376114967361,
      "perigee_km": 474.3858827769682,
      "latitude_deg": -1.2090603275062795e-05,
      "longitude_deg": -95.98407579034864,
      "height_km": 476.1502822157245,
      "semi_major_axis_km": 6853.398747136852,
      "eccentricity": 0.0001278,
      "inclination_deg": 53.16,
      "raan_deg": 260.0198,
      "arg_perigee_deg": 89.3769,
      "mean_anomaly_deg": 270.7378,
      "mean_motion_rev_day": 15.30184367
    }
  ]
}